{"spkid": "50745922", "covariance": {"epoch": "2457569.5", "labels": ["e", "q", "tp", "node", "peri", "i"], "elements": [{"units": null, "title": "eccentricity", "value": ".8546622401412776", "sigma": 9.65776918598743e-07, "name": "e", "label": "e"}, {"units": "au", "value": ".295251585817874", "title": "perihelion distance", "sigma": 2.03949553413827e-06, "name": "q", "label": "q"}, {"units": "TDB", "value": "2457406.370369841574", "title": "time of perihelion passage", "sigma": 4.10641410049583e-05, "name": "tp", "label": "tp"}, {"units": "deg", "value": "335.3150318217514", "title": "longitude of the ascending node", "name": "om", "sigma": 0.000153634349229964, "label": "node"}, {"units": "deg", "value": "69.49926046602265", "title": "argument of perihelion", "name": "w", "sigma": 0.000212756133959016, "label": "peri"}, {"units": "deg", "value": "11.40027192670842", "title": "inclination", "sigma": 7.79465669194902e-05, "name": "i", "label": "i"}], "data": [["9.327250564980833E-13", "-1.969135956954846E-12", "2.745645718594941E-11", "-5.487596325398252E-11", "-1.563120732297488E-10", "2.477844302950844E-12"], ["-1.969135956954846E-12", "4.159542033769935E-12", "-5.783992781516196E-11", "1.152256698724346E-10", "3.310031184040923E-10", "-5.717784031203068E-12"], ["2.745645718594941E-11", "-5.783992781516196E-11", "1.686263676475096E-9", "1.269246697733536E-10", "-6.051614476618564E-9", "5.202138747906195E-10"], ["-5.487596325398252E-11", "1.152256698724346E-10", "1.269246697733536E-10", "2.36035132633146E-8", "-1.043902946139796E-8", "1.051002925769746E-8"], ["-1.563120732297488E-10", "3.310031184040923E-10", "-6.051614476618564E-9", "-1.043902946139796E-8", "4.526517253718693E-8", "-1.08313927574593E-8"], ["2.477844302950844E-12", "-5.717784031203068E-12", "5.202138747906195E-10", "1.051002925769746E-8", "-1.08313927574593E-8", "6.075667294534557E-9"]]}, "elements": [{"sigma": "9.6733E-7", "name": "e", "units": null, "value": ".8557999095669022", "title": "eccentricity", "label": "e"}, {"label": "a", "sigma": "6.0125E-7", "name": "a", "title": "semi-major axis", "value": "2.028908011751002", "units": "au"}, {"sigma": "2.037E-6", "name": "q", "title": "perihelion distance", "value": ".2925687187749312", "units": "au", "label": "q"}, {"label": "i", "sigma": "7.7505E-5", "name": "i", "title": "inclination; angle with respect to x-y ecliptic plane", "value": "11.34661040312812", "units": "deg"}, {"label": "node", "name": "om", "sigma": ".0001613", "title": "longitude of the ascending node", "value": "334.4887107081996", "units": "deg"}, {"label": "peri", "sigma": ".00020718", "name": "w", "title": "argument of perihelion", "value": "70.33795387046213", "units": "deg"}, {"label": "M", "sigma": ".00057324", "name": "ma", "title": "mean anomaly", "value": "213.5472093001962", "units": "deg"}, {"units": "TDB", "title": "time of perihelion passage", "value": "2461629.924791480888", "name": "tp", "sigma": ".0018717", "label": "tp"}, {"value": "1055.581967365863", "title": "sidereal orbital period", "units": "d", "sigma": ".00046922", "name": "per", "label": "period"}, {"label": "n", "title": "mean motion", "value": ".3410440980707135", "units": "deg/d", "name": "n", "sigma": "1.516E-7"}, {"label": "Q", "units": "au", "title": "aphelion distance", "value": "3.765247304727073", "name": "ad", "sigma": "1.1158E-6"}], "epoch": "2461200.5"}